NAVSTAR 43 (USA 132)    
1 24876U 97035A   26090.92174321  .00000042  00000+0  00000+0 0  9991
2 24876  55.9520 101.5943 0098860  56.1233 304.8576  2.00563974210405
NAVSTAR 48 (USA 151)    
1 26407U 00040A   26090.75256877 -.00000036  00000+0  00000+0 0  9995
2 26407  54.8689 218.2361 0122172 302.5173 230.0733  2.00569238188392
NAVSTAR 51 (USA 166)    
1 27663U 03005A   26090.34694236 -.00000039  00000+0  00000+0 0  9997
2 27663  54.9001 218.0599 0148510  52.8714 322.3869  2.00564767169753
NAVSTAR 54 (USA 177)    
1 28190U 04009A   26090.61512705 -.00000033  00000+0  00000+0 0  9992
2 28190  54.8949 278.8194 0112317 169.8815 194.1241  2.00557212161399
NAVSTAR 56 (USA 180)    
1 28474U 04045A   26090.32282052 -.00000080  00000+0  00000+0 0  9996
2 28474  55.1797 328.0336 0170415 313.8624 264.0090  2.00574746156863
NAVSTAR 57 (USA 183)    
1 28874U 05038A   26090.57102097 -.00000032  00000+0  00000+0 0  9997
2 28874  54.9421 276.3079 0128138 295.6648  61.6866  2.00571105150272
NAVSTAR 58 (USA 190)    
1 29486U 06042A   26091.29177123  .00000036  00000+0  00000+0 0  9998
2 29486  54.6994 154.3926 0106313  53.1639   1.9519  2.00574052142859
NAVSTAR 59 (USA 192)    
1 29601U 06052A   26090.63710628 -.00000037  00000+0  00000+0 0  9990
2 29601  54.9503 217.0788 0087201  89.8595 271.1000  2.00553493141852
NAVSTAR 60 (USA 196)    
1 32260U 07047A   26090.94280973  .00000005  00000+0  00000+0 0  9993
2 32260  54.0383  83.2475 0164039  86.1941 275.6919  2.00559259135262
NAVSTAR 61 (USA 199)    
1 32384U 07062A   26090.00936110 -.00000028  00000+0  00000+0 0  9991
2 32384  55.0946 277.2932 0033779 161.1884  12.2320  2.00555203133943
NAVSTAR 62 (USA 201)    
1 32711U 08012A   26091.35838563  .00000037  00000+0  00000+0 0  9992
2 32711  54.4845 152.9949 0208545 246.6827 111.1856  2.00570203132215
NAVSTAR 64 (USA 206)    
1 35752U 09043A   26091.34069398 -.00000100  00000+0  00000+0 0  9998
2 35752  56.1654  30.4705 0052373  80.8640 281.0475  2.00558679121829
NAVSTAR 65 (USA 213)    
1 36585U 10022A   26091.17403328 -.00000030  00000+0  00000+0 0  9990
2 36585  54.2829 211.6633 0127025  66.0199 292.4104  2.00558637116049
NAVSTAR 67 (USA 239)    
1 38833U 12053A   26086.05261588 -.00000004  00000+0  00000+0 0  9996
2 38833  53.5685 146.9649 0177237  64.9128 296.9786  2.00566077 97797
NAVSTAR 68 (USA 242)    
1 39166U 13023A   26090.90349851 -.00000034  00000+0  00000+0 0  9996
2 39166  54.5658 272.1198 0141962  50.3418 310.8851  2.00563989 94331
NAVSTAR 69 (USA 248)    
1 39533U 14008A   26091.40192326  .00000036  00000+0  00000+0 0  9998
2 39533  53.6402 152.4525 0083202 229.3061 130.0456  2.00554869 88146
NAVSTAR 70 (USA 251)    
1 39741U 14026A   26091.17999505 -.00000088  00000+0  00000+0 0  9995
2 39741  56.5333 334.5171 0039432 325.9389  33.8581  2.00566702 86993
